     2.100          NAVIGATION                              RINEX VERSION / TYPE
fic2rin                                 04/06/2009 01:12:48 PGM / RUN BY / DATE
                                                            END OF HEADER
11 09  4  5 18  0  0.0  .224635004997D-05 -.136424205266D-11  .000000000000D+00
     .460000000000D+02  .632187500000D+02  .652848622337D-08 -.345001394053D+00
     .343099236488D-05  .926132430322D-02  .713951885700D-05  .515367573547D+04
     .648000000000D+05  .726431608200D-07  .272381779257D+00  .119209289551D-06
     .890065459348D+00  .205468750000D+03  .691977152586D+00 -.921431238452D-08
     .468590947265D-09  .100000000000D+01  .152600000000D+04  .000000000000D+00
     .240000000000D+01  .000000000000D+00 -.121071934700D-07  .460000000000D+02
     .576060000000D+05  .400000000000D+01
12 09  4  5 18  0  0.0 -.297842547297D-03  .466116034659D-11  .000000000000D+00
     .940000000000D+02 -.853750000000D+02  .454768942952D-08 -.789044995806D-01
    -.446662306786D-05  .335459155031D-02  .528246164322D-05  .515368387222D+04
     .648000000000D+05  .800937414169D-07 -.160711892522D+01 -.175088644028D-06
     .966130894293D+00  .282687500000D+03 -.764201283571D+00 -.828927385296D-08
    -.325370695853D-09  .100000000000D+01  .152600000000D+04  .000000000000D+00
     .240000000000D+01  .000000000000D+00 -.121071934700D-07  .940000000000D+02
     .576060000000D+05  .400000000000D+01
13 09  4  5 18  0  0.0  .293654855341D-03  .102318153949D-11  .000000000000D+00
     .180000000000D+02  .485625000000D+02  .343657171843D-08  .223496662072D+01
     .234507024288D-05  .398634281009D-02  .118315219879D-04  .515373844337D+04
     .648000000000D+05  .260770320892D-07  .263339923094D+01 -.484287738800D-07
     .995238429024D+00  .163531250000D+03  .152620136258D+01 -.750566978413D-08
    -.143220251413D-09  .100000000000D+01  .152600000000D+04  .000000000000D+00
     .240000000000D+01  .000000000000D+00 -.111758708954D-07  .180000000000D+02
     .576060000000D+05  .400000000000D+01
14 09  4  5 18  0  0.0 -.130310654640D-03  .568434188608D-11  .000000000000D+00
     .520000000000D+02  .258125000000D+02  .361443627006D-08  .194978265225D+01
     .124238431454D-05  .436225254089D-02  .112615525723D-04  .515359694290D+04
     .648000000000D+05 -.763684511185D-07  .261422395322D+01 -.102445483208D-06
     .988765717261D+00  .178718750000D+03 -.212281606578D+01 -.759388774448D-08
    -.145363197818D-09  .100000000000D+01  .152600000000D+04  .000000000000D+00
     .240000000000D+01  .000000000000D+00 -.931322574615D-08  .520000000000D+02
     .576060000000D+05  .400000000000D+01
15 09  4  5 18  0  0.0 -.277664512396D-03 -.443378667114D-11  .000000000000D+00
     .110000000000D+03  .251562500000D+02  .441446959466D-08  .223245822824D+01
     .160746276379D-05  .143669801764D-02  .122562050819D-04  .515360803032D+04
     .648000000000D+05  .540167093277D-07  .256340772653D+01  .335276126862D-07
     .956799190024D+00  .139281250000D+03 -.542774556076D+00 -.799176146037D-08
    -.184650548579D-09  .100000000000D+01  .152600000000D+04  .000000000000D+00
     .240000000000D+01  .000000000000D+00 -.977888703346D-08  .110000000000D+03
     .576060000000D+05  .400000000000D+01
16 09  4  5 18  0  0.0  .618612393737D-04 -.306954461848D-11  .000000000000D+00
     .290000000000D+02 -.783125000000D+02  .445304262996D-08 -.259426696815D+01
    -.393949449062D-05  .528507400304D-02  .587478280067D-05  .515379379272D+04
     .648000000000D+05 -.689178705215D-07 -.159024094236D+01  .521540641785D-07
     .967617571624D+00  .271812500000D+03 -.372317333974D+00 -.817605485122D-08
    -.202151277555D-09  .100000000000D+01  .152600000000D+04  .000000000000D+00
     .240000000000D+01  .000000000000D+00 -.977888703346D-08  .290000000000D+02
     .576060000000D+05  .400000000000D+01
17 09  4  5 18  0  0.0  .530364923179D-04  .159161572810D-11  .000000000000D+00
     .970000000000D+02 -.252500000000D+02  .424303388225D-08  .260317003888D+01
    -.108219683170D-05  .438748206943D-02  .133141875267D-04  .515366928291D+04
     .648000000000D+05 -.726431608200D-07 -.547875457372D+00 -.372529029846D-07
     .959990708198D+00  .118437500000D+03 -.268290360778D+01 -.781425406648D-08
     .277511559470D-09  .100000000000D+01  .152600000000D+04  .000000000000D+00
     .240000000000D+01  .000000000000D+00 -.102445483208D-07  .970000000000D+02
     .576060000000D+05  .400000000000D+01
18 09  4  5 18  0  0.0 -.682678073645D-04  .341060513165D-11  .000000000000D+00
     .360000000000D+02 -.482187500000D+02  .528414867743D-08 -.244715646006D+01
    -.249966979027D-05  .101280710660D-01  .621378421783D-05  .515358452988D+04
     .648000000000D+05  .124797224998D-06  .156050142702D+01 -.178813934326D-06
     .942761493343D+00  .249000000000D+03 -.243036979255D+01 -.842285084555D-08
    -.352514683652D-09  .100000000000D+01  .152600000000D+04  .000000000000D+00
     .240000000000D+01  .000000000000D+00 -.107102096081D-07  .360000000000D+02
     .576060000000D+05  .400000000000D+01
20 09  4  5 18  0  0.0  .861678272486D-04 -.102318153949D-11  .000000000000D+00
     .410000000000D+02 -.294687500000D+02  .538200989660D-08 -.227813974413D+01
    -.149384140968D-05  .405038171448D-02  .612437725067D-05  .515363492203D+04
     .648000000000D+05  .651925802231D-07  .150666056308D+01  .894069671631D-07
     .942389335761D+00  .253343750000D+03  .133964203086D+01 -.848285334489D-08
    -.360372153804D-09  .100000000000D+01  .152600000000D+04  .000000000000D+00
     .240000000000D+01  .000000000000D+00 -.651925802231D-08  .410000000000D+02
     .576060000000D+05  .400000000000D+01
21 09  4  5 18  0  0.0  .208015553653D-04 -.193267624127D-11  .000000000000D+00
     .106000000000D+03  .565625000000D+02  .546165607133D-08 -.113442652473D+01
     .299327075481D-05  .149512136122D-01  .555813312531D-05  .515362405586D+04
     .648000000000D+05  .288709998131D-06  .501755513708D+00 -.391155481339D-07
     .934602304749D+00  .252718750000D+03 -.262631162252D+01 -.857678582898D-08
     .512878506306D-09  .100000000000D+01  .152600000000D+04  .000000000000D+00
     .240000000000D+01  .000000000000D+00 -.116415321827D-07  .106000000000D+03
     .576060000000D+05  .400000000000D+01
22 09  4  5 18  0  0.0  .202151946723D-03 -.795807864051D-12  .000000000000D+00
     .840000000000D+02 -.413750000000D+02  .532879339421D-08  .278964362459D+01
    -.215880572796D-05  .486465333961D-02  .640191137791D-05  .515365885353D+04
     .648000000000D+05  .111758708954D-07  .156630065665D+01 -.104308128357D-06
     .940423473761D+00  .245281250000D+03 -.185585408201D+01 -.845678083029D-08
    -.452161691492D-09  .100000000000D+01  .152600000000D+04  .000000000000D+00
     .485000000000D+01  .000000000000D+00 -.181607902050D-07  .840000000000D+02
     .576060000000D+05  .400000000000D+01
23 09  4  5 18  0  0.0  .389125198126D-03  .341060513165D-12  .000000000000D+00
     .320000000000D+02  .335625000000D+02  .409731352670D-08  .139910949279D+01
     .189989805222D-05  .590843125246D-02  .113658607006D-04  .515363253593D+04
     .648000000000D+05  .577419996262D-07  .258263767350D+01  .540167093277D-07
     .970753551576D+00  .161250000000D+03  .287567554297D+01 -.785175562857D-08
    -.236795577772D-09  .100000000000D+01  .152600000000D+04  .000000000000D+00
     .240000000000D+01  .000000000000D+00 -.200234353542D-07  .320000000000D+02
     .576060000000D+05  .400000000000D+01
24 09  4  5 18  0  0.0  .178944785148D-03  .306954461848D-11  .000000000000D+00
     .470000000000D+02  .579375000000D+02  .508164024214D-08 -.250357203496D+01
     .310502946377D-05  .680983264465D-02  .637769699097D-05  .515367286873D+04
     .648000000000D+05 -.126659870148D-06  .533010852099D+00  .119209289551D-06
     .951215206846D+00  .251875000000D+03 -.643491364638D+00 -.828105922507D-08
     .413945813933D-09  .100000000000D+01  .152600000000D+04  .000000000000D+00
     .240000000000D+01  .000000000000D+00 -.139698386192D-08  .470000000000D+02
     .576060000000D+05  .400000000000D+01
25 09  4  5 18  0  0.0  .342526938766D-03  .216004991671D-10  .000000000000D+00
     .103000000000D+03  .692500000000D+02  .436375319641D-08 -.200517977137D+01
     .362284481525D-05  .116316513158D-01  .537931919098D-05  .515366031647D+04
     .648000000000D+05  .353902578354D-07 -.275357995242D+01  .234693288803D-06
     .969174793792D+00  .281718750000D+03 -.121091099647D+01 -.817998358629D-08
     .230723896291D-09  .100000000000D+01  .152600000000D+04  .000000000000D+00
     .340000000000D+01  .000000000000D+00 -.745058059692D-08  .103000000000D+03
     .576060000000D+05  .400000000000D+01
26 09  4  5 18  0  0.0  .552251003683D-04  .204636307899D-11  .000000000000D+00
     .870000000000D+02  .342500000000D+02  .367515308488D-08  .586587292138D+00
     .222027301788D-05  .203148960136D-01  .122580677271D-04  .515487295151D+04
     .648000000000D+05 -.234693288803D-06  .263113314011D+01  .149011611938D-06
     .993093325912D+00  .163156250000D+03  .989728386114D+00 -.788639992878D-08
    -.272868508926D-09  .100000000000D+01  .152600000000D+04  .000000000000D+00
     .240000000000D+01  .000000000000D+00 -.651925802231D-08  .870000000000D+02
     .576060000000D+05  .400000000000D+01
27 09  4  5 18  0  0.0  .383225269616D-04  .318323145621D-11  .000000000000D+00
     .104000000000D+03  .796875000000D+02  .427160650099D-08  .269794272602D+01
     .402517616749D-05  .209121057997D-01  .503472983837D-05  .515512033844D+04
     .648000000000D+05  .214204192162D-06 -.271744669510D+01 -.182539224625D-06
     .973847122996D+00  .279625000000D+03 -.162329146557D+01 -.786711341114D-08
     .211794536378D-09  .100000000000D+01  .152600000000D+04  .000000000000D+00
     .240000000000D+01  .000000000000D+00 -.419095158577D-08  .104000000000D+03
     .576060000000D+05  .400000000000D+01
